CCSDS_OMM_VERS = 2.0
CREATION_DATE  = 
ORIGINATOR     = 

OBJECT_NAME    = SL-4 R/B
OBJECT_ID      = 2014-021B
CENTER_NAME    = EARTH
REF_FRAME      = TEME
TIME_SYSTEM    = UTC
MEAN_ELEMENT_THEORY = SGP/SGP4

EPOCH          = 2025-12-18T01:52:45.477696
MEAN_MOTION    = 15.36795304
ECCENTRICITY   = .01013462
INCLINATION    = 51.6090
RA_OF_ASC_NODE = 14.6477
ARG_OF_PERICENTER = 165.4771
MEAN_ANOMALY   = 194.9162

EPHEMERIS_TYPE = 0
CLASSIFICATION_TYPE = U
NORAD_CAT_ID   = 39679
ELEMENT_SET_NO = 999
REV_AT_EPOCH   = 64371
BSTAR          = .25880218E-3
MEAN_MOTION_DOT = .10803E-3
MEAN_MOTION_DDOT = 0

CCSDS_OMM_VERS = 2.0
CREATION_DATE  = 
ORIGINATOR     = 

OBJECT_NAME    = ALOS-2
OBJECT_ID      = 2014-029A
CENTER_NAME    = EARTH
REF_FRAME      = TEME
TIME_SYSTEM    = UTC
MEAN_ELEMENT_THEORY = SGP/SGP4

EPOCH          = 2025-12-18T06:56:04.573248
MEAN_MOTION    = 14.79474940
ECCENTRICITY   = .00013375
INCLINATION    = 97.9226
RA_OF_ASC_NODE = 87.0562
ARG_OF_PERICENTER = 98.5093
MEAN_ANOMALY   = 261.6270

EPHEMERIS_TYPE = 0
CLASSIFICATION_TYPE = U
NORAD_CAT_ID   = 39766
ELEMENT_SET_NO = 999
REV_AT_EPOCH   = 62483
BSTAR          = .18700556E-3
MEAN_MOTION_DOT = .1345E-4
MEAN_MOTION_DDOT = 0

CCSDS_OMM_VERS = 2.0
CREATION_DATE  = 
ORIGINATOR     = 

OBJECT_NAME    = YAOGAN-29
OBJECT_ID      = 2015-069A
CENTER_NAME    = EARTH
REF_FRAME      = TEME
TIME_SYSTEM    = UTC
MEAN_ELEMENT_THEORY = SGP/SGP4

EPOCH          = 2025-12-18T06:50:46.733568
MEAN_MOTION    = 14.82887380
ECCENTRICITY   = .0000355
INCLINATION    = 98.0216
RA_OF_ASC_NODE = 15.4753
ARG_OF_PERICENTER = 198.4026
MEAN_ANOMALY   = 161.7174

EPHEMERIS_TYPE = 0
CLASSIFICATION_TYPE = U
NORAD_CAT_ID   = 41038
ELEMENT_SET_NO = 999
REV_AT_EPOCH   = 54381
BSTAR          = .30568399E-4
MEAN_MOTION_DOT = .194E-5
MEAN_MOTION_DDOT = 0

CCSDS_OMM_VERS = 2.0
CREATION_DATE  = 
ORIGINATOR     = 

OBJECT_NAME    = ASTRO-H (HITOMI)
OBJECT_ID      = 2016-012A
CENTER_NAME    = EARTH
REF_FRAME      = TEME
TIME_SYSTEM    = UTC
MEAN_ELEMENT_THEORY = SGP/SGP4

EPOCH          = 2025-12-18T04:17:43.363968
MEAN_MOTION    = 15.09386475
ECCENTRICITY   = .0009667
INCLINATION    = 30.9977
RA_OF_ASC_NODE = 162.3048
ARG_OF_PERICENTER = 233.6410
MEAN_ANOMALY   = 126.3336

EPHEMERIS_TYPE = 0
CLASSIFICATION_TYPE = U
NORAD_CAT_ID   = 41337
ELEMENT_SET_NO = 999
REV_AT_EPOCH   = 53990
BSTAR          = .16483994E-3
MEAN_MOTION_DOT = .2795E-4
MEAN_MOTION_DDOT = 0

CCSDS_OMM_VERS = 2.0
CREATION_DATE  = 
ORIGINATOR     = 

OBJECT_NAME    = HXMT (HUIYAN)
OBJECT_ID      = 2017-034A
CENTER_NAME    = EARTH
REF_FRAME      = TEME
TIME_SYSTEM    = UTC
MEAN_ELEMENT_THEORY = SGP/SGP4

EPOCH          = 2025-12-18T07:47:02.091264
MEAN_MOTION    = 15.16297040
ECCENTRICITY   = .00311317
INCLINATION    = 43.0134
RA_OF_ASC_NODE = 108.6356
ARG_OF_PERICENTER = 80.0742
MEAN_ANOMALY   = 280.3617

EPHEMERIS_TYPE = 0
CLASSIFICATION_TYPE = U
NORAD_CAT_ID   = 42758
ELEMENT_SET_NO = 999
REV_AT_EPOCH   = 47018
BSTAR          = .25018029E-3
MEAN_MOTION_DOT = .4754E-4
MEAN_MOTION_DDOT = 0

CCSDS_OMM_VERS = 2.0
CREATION_DATE  = 
ORIGINATOR     = 

OBJECT_NAME    = CZ-2C R/B
OBJECT_ID      = 2018-054D
CENTER_NAME    = EARTH
REF_FRAME      = TEME
TIME_SYSTEM    = UTC
MEAN_ELEMENT_THEORY = SGP/SGP4

EPOCH          = 2025-12-18T02:57:32.313888
MEAN_MOTION    = 15.75204281
ECCENTRICITY   = .00150781
INCLINATION    = 35.1315
RA_OF_ASC_NODE = 144.3574
ARG_OF_PERICENTER = 198.9364
MEAN_ANOMALY   = 161.0810

EPHEMERIS_TYPE = 0
CLASSIFICATION_TYPE = U
NORAD_CAT_ID   = 43521
ELEMENT_SET_NO = 999
REV_AT_EPOCH   = 41590
BSTAR          = .60676473E-3
MEAN_MOTION_DOT = .96229E-3
MEAN_MOTION_DDOT = 0

CCSDS_OMM_VERS = 2.0
CREATION_DATE  = 
ORIGINATOR     = 

OBJECT_NAME    = SAOCOM 1A
OBJECT_ID      = 2018-076A
CENTER_NAME    = EARTH
REF_FRAME      = TEME
TIME_SYSTEM    = UTC
MEAN_ELEMENT_THEORY = SGP/SGP4

EPOCH          = 2025-12-18T06:36:21.649248
MEAN_MOTION    = 14.82163707
ECCENTRICITY   = .00014562
INCLINATION    = 97.8839
RA_OF_ASC_NODE = 176.6161
ARG_OF_PERICENTER = 80.3703
MEAN_ANOMALY   = 279.7675

EPHEMERIS_TYPE = 0
CLASSIFICATION_TYPE = U
NORAD_CAT_ID   = 43641
ELEMENT_SET_NO = 999
REV_AT_EPOCH   = 38930
BSTAR          = .69538515E-4
MEAN_MOTION_DOT = .502E-5
MEAN_MOTION_DDOT = 0

CCSDS_OMM_VERS = 2.0
CREATION_DATE  = 
ORIGINATOR     = 

OBJECT_NAME    = H-2A R/B
OBJECT_ID      = 2018-084L
CENTER_NAME    = EARTH
REF_FRAME      = TEME
TIME_SYSTEM    = UTC
MEAN_ELEMENT_THEORY = SGP/SGP4

EPOCH          = 2025-12-18T06:56:57.073344
MEAN_MOTION    = 15.37567541
ECCENTRICITY   = .00269657
INCLINATION    = 98.8766
RA_OF_ASC_NODE = 187.5194
ARG_OF_PERICENTER = 307.1003
MEAN_ANOMALY   = 52.7772

EPHEMERIS_TYPE = 0
CLASSIFICATION_TYPE = U
NORAD_CAT_ID   = 43682
ELEMENT_SET_NO = 999
REV_AT_EPOCH   = 39325
BSTAR          = .46495662E-3
MEAN_MOTION_DOT = .1726E-3
MEAN_MOTION_DDOT = 0

CCSDS_OMM_VERS = 2.0
CREATION_DATE  = 
ORIGINATOR     = 

OBJECT_NAME    = SAOCOM 1B
OBJECT_ID      = 2020-059A
CENTER_NAME    = EARTH
REF_FRAME      = TEME
TIME_SYSTEM    = UTC
MEAN_ELEMENT_THEORY = SGP/SGP4

EPOCH          = 2025-12-18T05:44:09.441888
MEAN_MOTION    = 14.82142854
ECCENTRICITY   = .00014074
INCLINATION    = 97.8836
RA_OF_ASC_NODE = 175.6807
ARG_OF_PERICENTER = 85.1893
MEAN_ANOMALY   = 274.9481

EPHEMERIS_TYPE = 0
CLASSIFICATION_TYPE = U
NORAD_CAT_ID   = 46265
ELEMENT_SET_NO = 999
REV_AT_EPOCH   = 28668
BSTAR          = .51067355E-4
MEAN_MOTION_DOT = .354E-5
MEAN_MOTION_DDOT = 0

CCSDS_OMM_VERS = 2.0
CREATION_DATE  = 
ORIGINATOR     = 

OBJECT_NAME    = CSS (TIANHE)
OBJECT_ID      = 2021-035A
CENTER_NAME    = EARTH
REF_FRAME      = TEME
TIME_SYSTEM    = UTC
MEAN_ELEMENT_THEORY = SGP/SGP4

EPOCH          = 2025-12-18T06:53:03.575616
MEAN_MOTION    = 15.59417882
ECCENTRICITY   = .00077258
INCLINATION    = 41.4683
RA_OF_ASC_NODE = 343.0261
ARG_OF_PERICENTER = 79.3286
MEAN_ANOMALY   = 280.8422

EPHEMERIS_TYPE = 0
CLASSIFICATION_TYPE = U
NORAD_CAT_ID   = 48274
ELEMENT_SET_NO = 999
REV_AT_EPOCH   = 26489
BSTAR          = .29030456E-3
MEAN_MOTION_DOT = .23377E-3
MEAN_MOTION_DDOT = 0

CCSDS_OMM_VERS = 2.0
CREATION_DATE  = 
ORIGINATOR     = 

OBJECT_NAME    = CZ-2C R/B
OBJECT_ID      = 2022-058K
CENTER_NAME    = EARTH
REF_FRAME      = TEME
TIME_SYSTEM    = UTC
MEAN_ELEMENT_THEORY = SGP/SGP4

EPOCH          = 2025-12-18T07:00:01.551168
MEAN_MOTION    = 15.48767899
ECCENTRICITY   = .00450718
INCLINATION    = 50.1911
RA_OF_ASC_NODE = 15.2296
ARG_OF_PERICENTER = 221.4748
MEAN_ANOMALY   = 138.2796

EPHEMERIS_TYPE = 0
CLASSIFICATION_TYPE = U
NORAD_CAT_ID   = 52794
ELEMENT_SET_NO = 999
REV_AT_EPOCH   = 19749
BSTAR          = .39542597E-3
MEAN_MOTION_DOT = .22123E-3
MEAN_MOTION_DDOT = 0

