SL-4 R/B                
1 39679U 14021B   25352.07830414  .00010803  00000+0  25880-3 0  9993
2 39679  51.6090  14.6477 0101346 165.4771 194.9162 15.36795304643718
ALOS-2                  
1 39766U 14029A   25352.28894182  .00001345  00000+0  18701-3 0  9998
2 39766  97.9226  87.0562 0001337  98.5093 261.6270 14.79474940624830
YAOGAN-29               
1 41038U 15069A   25352.28526312  .00000194  00000+0  30568-4 0  9992
2 41038  98.0216  15.4753 0000355 198.4026 161.7174 14.82887380543819
ASTRO-H (HITOMI)        
1 41337U 16012A   25352.17897412  .00002795  00000+0  16484-3 0  9992
2 41337  30.9977 162.3048 0009667 233.6410 126.3336 15.09386475539904
HXMT (HUIYAN)           
1 42758U 17034A   25352.32432976  .00004754  00000+0  25018-3 0  9992
2 42758  43.0134 108.6356 0031131  80.0742 280.3617 15.16297040470184
CZ-2C R/B               
1 43521U 18054D   25352.12329067  .00096229  00000+0  60676-3 0  9995
2 43521  35.1315 144.3574 0015078 198.9364 161.0810 15.75204281415905
SAOCOM 1A               
1 43641U 18076A   25352.27525057  .00000502  00000+0  69539-4 0  9992
2 43641  97.8839 176.6161 0001456  80.3703 279.7675 14.82163707389304
H-2A R/B                
1 43682U 18084L   25352.28954946  .00017260  00000+0  46496-3 0  9995
2 43682  98.8766 187.5194 0026965 307.1003  52.7772 15.37567541393252
SAOCOM 1B               
1 46265U 20059A   25352.23899817  .00000354  00000+0  51067-4 0  9997
2 46265  97.8836 175.6807 0001407  85.1893 274.9481 14.82142854286680
CSS (TIANHE)            
1 48274U 21035A   25352.28684694  .00023377  00000+0  29030-3 0  9998
2 48274  41.4683 343.0261 0007725  79.3286 280.8422 15.59417882264893
CZ-2C R/B               
1 52794U 22058K   25352.29168462  .00022123  00000+0  39543-3 0  9995
2 52794  50.1911  15.2296 0045071 221.4748 138.2796 15.48767899197496
